[{"OBJECT_NAME":"ONEWEB-0298","OBJECT_ID":"2021-075N","EPOCH":"2026-01-19T06:45:01.013472","MEAN_MOTION":13.17654908,"ECCENTRICITY":0.00019636,"INCLINATION":87.9082,"RA_OF_ASC_NODE":35.4636,"ARG_OF_PERICENTER":88.2606,"MEAN_ANOMALY":271.875,"EPHEMERIS_TYPE":0,"CLASSIFICATION_TYPE":"U","NORAD_CAT_ID":49087,"ELEMENT_SET_NO":999,"REV_AT_EPOCH":21401,"BSTAR":-0.0028600787,"MEAN_MOTION_DOT":-1.098e-5,"MEAN_MOTION_DDOT":0},{"OBJECT_NAME":"ONEWEB-0299","OBJECT_ID":"2021-075P","EPOCH":"2026-01-19T06:47:15.945216","MEAN_MOTION":13.176511,"ECCENTRICITY":0.00019725,"INCLINATION":87.9094,"RA_OF_ASC_NODE":35.4287,"ARG_OF_PERICENTER":94.389,"MEAN_ANOMALY":265.7466,"EPHEMERIS_TYPE":0,"CLASSIFICATION_TYPE":"U","NORAD_CAT_ID":49088,"ELEMENT_SET_NO":999,"REV_AT_EPOCH":21399,"BSTAR":4.5193191e-5,"MEAN_MOTION_DOT":3.0e-7,"MEAN_MOTION_DDOT":0},{"OBJECT_NAME":"ONEWEB-0300","OBJECT_ID":"2021-075Q","EPOCH":"2026-01-19T06:56:42.160704","MEAN_MOTION":13.12444943,"ECCENTRICITY":0.00019766,"INCLINATION":87.8933,"RA_OF_ASC_NODE":20.2149,"ARG_OF_PERICENTER":79.0039,"MEAN_ANOMALY":281.1312,"EPHEMERIS_TYPE":0,"CLASSIFICATION_TYPE":"U","NORAD_CAT_ID":49089,"ELEMENT_SET_NO":999,"REV_AT_EPOCH":21567,"BSTAR":0.001209748,"MEAN_MOTION_DOT":4.48e-6,"MEAN_MOTION_DDOT":0},{"OBJECT_NAME":"ONEWEB-0301","OBJECT_ID":"2021-075R","EPOCH":"2026-01-19T01:04:08.727744","MEAN_MOTION":13.12446504,"ECCENTRICITY":0.00018895,"INCLINATION":87.8929,"RA_OF_ASC_NODE":20.2646,"ARG_OF_PERICENTER":77.3559,"MEAN_ANOMALY":282.7781,"EPHEMERIS_TYPE":0,"CLASSIFICATION_TYPE":"U","NORAD_CAT_ID":49090,"ELEMENT_SET_NO":999,"REV_AT_EPOCH":21500,"BSTAR":-4.1917564e-5,"MEAN_MOTION_DOT":-2.0e-8,"MEAN_MOTION_DDOT":0},{"OBJECT_NAME":"ONEWEB-0302","OBJECT_ID":"2021-075S","EPOCH":"2026-01-19T06:13:59.492640","MEAN_MOTION":13.12443857,"ECCENTRICITY":0.00016824,"INCLINATION":87.8933,"RA_OF_ASC_NODE":20.2305,"ARG_OF_PERICENTER":100.2507,"MEAN_ANOMALY":259.8811,"EPHEMERIS_TYPE":0,"CLASSIFICATION_TYPE":"U","NORAD_CAT_ID":49091,"ELEMENT_SET_NO":999,"REV_AT_EPOCH":21501,"BSTAR":-0.0011358485,"MEAN_MOTION_DOT":-3.96e-6,"MEAN_MOTION_DDOT":0},{"OBJECT_NAME":"ONEWEB-0304","OBJECT_ID":"2021-075T","EPOCH":"2026-01-19T08:00:10.440288","MEAN_MOTION":13.17648968,"ECCENTRICITY":0.00019409,"INCLINATION":87.9092,"RA_OF_ASC_NODE":35.4493,"ARG_OF_PERICENTER":94.7785,"MEAN_ANOMALY":265.3568,"EPHEMERIS_TYPE":0,"CLASSIFICATION_TYPE":"U","NORAD_CAT_ID":49092,"ELEMENT_SET_NO":999,"REV_AT_EPOCH":21397,"BSTAR":0.00023269829,"MEAN_MOTION_DOT":1.03e-6,"MEAN_MOTION_DDOT":0},{"OBJECT_NAME":"ONEWEB-0305","OBJECT_ID":"2021-075U","EPOCH":"2026-01-19T07:50:27.744864","MEAN_MOTION":13.17650017,"ECCENTRICITY":0.00022026,"INCLINATION":87.9095,"RA_OF_ASC_NODE":35.4287,"ARG_OF_PERICENTER":97.1618,"MEAN_ANOMALY":262.9764,"EPHEMERIS_TYPE":0,"CLASSIFICATION_TYPE":"U","NORAD_CAT_ID":49093,"ELEMENT_SET_NO":999,"REV_AT_EPOCH":21400,"BSTAR":0.00023712677,"MEAN_MOTION_DOT":1.05e-6,"MEAN_MOTION_DDOT":0},{"OBJECT_NAME":"ONEWEB-0308","OBJECT_ID":"2021-075V","EPOCH":"2026-01-19T06:04:12.891072","MEAN_MOTION":13.12440995,"ECCENTRICITY":0.00017573,"INCLINATION":87.893,"RA_OF_ASC_NODE":20.2246,"ARG_OF_PERICENTER":88.3137,"MEAN_ANOMALY":271.8193,"EPHEMERIS_TYPE":0,"CLASSIFICATION_TYPE":"U","NORAD_CAT_ID":49094,"ELEMENT_SET_NO":999,"REV_AT_EPOCH":21502,"BSTAR":-0.0010903627,"MEAN_MOTION_DOT":-3.8e-6,"MEAN_MOTION_DDOT":0},{"OBJECT_NAME":"ONEWEB-0309","OBJECT_ID":"2021-075W","EPOCH":"2026-01-19T07:55:18.469632","MEAN_MOTION":13.17650589,"ECCENTRICITY":0.00016629,"INCLINATION":87.9093,"RA_OF_ASC_NODE":35.4433,"ARG_OF_PERICENTER":105.4881,"MEAN_ANOMALY":254.6434,"EPHEMERIS_TYPE":0,"CLASSIFICATION_TYPE":"U","NORAD_CAT_ID":49095,"ELEMENT_SET_NO":999,"REV_AT_EPOCH":21397,"BSTAR":0.00029675109,"MEAN_MOTION_DOT":1.28e-6,"MEAN_MOTION_DDOT":0},{"OBJECT_NAME":"ONEWEB-0310","OBJECT_ID":"2021-075X","EPOCH":"2026-01-19T06:26:10.097952","MEAN_MOTION":13.12443957,"ECCENTRICITY":0.00017346,"INCLINATION":87.8922,"RA_OF_ASC_NODE":20.2557,"ARG_OF_PERICENTER":88.7007,"MEAN_ANOMALY":271.432,"EPHEMERIS_TYPE":0,"CLASSIFICATION_TYPE":"U","NORAD_CAT_ID":49096,"ELEMENT_SET_NO":999,"REV_AT_EPOCH":21565,"BSTAR":-0.0013300699,"MEAN_MOTION_DOT":-4.66e-6,"MEAN_MOTION_DDOT":0},{"OBJECT_NAME":"ONEWEB-0311","OBJECT_ID":"2021-075Y","EPOCH":"2026-01-19T02:36:59.513760","MEAN_MOTION":13.1764845,"ECCENTRICITY":0.00021336,"INCLINATION":87.9094,"RA_OF_ASC_NODE":35.4825,"ARG_OF_PERICENTER":93.6659,"MEAN_ANOMALY":266.4717,"EPHEMERIS_TYPE":0,"CLASSIFICATION_TYPE":"U","NORAD_CAT_ID":49097,"ELEMENT_SET_NO":999,"REV_AT_EPOCH":21399,"BSTAR":-0.00010063642,"MEAN_MOTION_DOT":-2.6e-7,"MEAN_MOTION_DDOT":0},{"OBJECT_NAME":"ONEWEB-0312","OBJECT_ID":"2021-075Z","EPOCH":"2026-01-19T01:09:30.338784","MEAN_MOTION":13.17651057,"ECCENTRICITY":0.00020053,"INCLINATION":87.9082,"RA_OF_ASC_NODE":35.517,"ARG_OF_PERICENTER":101.8199,"MEAN_ANOMALY":258.3157,"EPHEMERIS_TYPE":0,"CLASSIFICATION_TYPE":"U","NORAD_CAT_ID":49098,"ELEMENT_SET_NO":999,"REV_AT_EPOCH":21396,"BSTAR":0.00010914592,"MEAN_MOTION_DOT":5.5e-7,"MEAN_MOTION_DDOT":0},{"OBJECT_NAME":"ONEWEB-0313","OBJECT_ID":"2021-075AA","EPOCH":"2026-01-19T06:44:38.838048","MEAN_MOTION":13.17650571,"ECCENTRICITY":0.0001922,"INCLINATION":87.9079,"RA_OF_ASC_NODE":35.4773,"ARG_OF_PERICENTER":93.2626,"MEAN_ANOMALY":266.8726,"EPHEMERIS_TYPE":0,"CLASSIFICATION_TYPE":"U","NORAD_CAT_ID":49099,"ELEMENT_SET_NO":999,"REV_AT_EPOCH":21398,"BSTAR":8.50289e-7,"MEAN_MOTION_DOT":1.3e-7,"MEAN_MOTION_DDOT":0},{"OBJECT_NAME":"ONEWEB-0314","OBJECT_ID":"2021-075AB","EPOCH":"2026-01-19T07:45:35.329248","MEAN_MOTION":13.17650516,"ECCENTRICITY":0.00020787,"INCLINATION":87.9096,"RA_OF_ASC_NODE":35.4266,"ARG_OF_PERICENTER":102.1719,"MEAN_ANOMALY":257.9646,"EPHEMERIS_TYPE":0,"CLASSIFICATION_TYPE":"U","NORAD_CAT_ID":49100,"ELEMENT_SET_NO":999,"REV_AT_EPOCH":21396,"BSTAR":0.00010749049,"MEAN_MOTION_DOT":5.5e-7,"MEAN_MOTION_DDOT":0},{"OBJECT_NAME":"ONEWEB-0315","OBJECT_ID":"2021-075AC","EPOCH":"2026-01-19T05:47:10.005792","MEAN_MOTION":13.12442983,"ECCENTRICITY":0.00021657,"INCLINATION":87.8934,"RA_OF_ASC_NODE":20.2127,"ARG_OF_PERICENTER":86.4518,"MEAN_ANOMALY":273.6858,"EPHEMERIS_TYPE":0,"CLASSIFICATION_TYPE":"U","NORAD_CAT_ID":49101,"ELEMENT_SET_NO":999,"REV_AT_EPOCH":21563,"BSTAR":-0.00031991284,"MEAN_MOTION_DOT":-1.02e-6,"MEAN_MOTION_DDOT":0},{"OBJECT_NAME":"ONEWEB-0316","OBJECT_ID":"2021-075AD","EPOCH":"2026-01-19T05:07:10.420320","MEAN_MOTION":13.18685175,"ECCENTRICITY":0.00018765,"INCLINATION":87.9183,"RA_OF_ASC_NODE":5.0431,"ARG_OF_PERICENTER":85.3903,"MEAN_ANOMALY":274.7443,"EPHEMERIS_TYPE":0,"CLASSIFICATION_TYPE":"U","NORAD_CAT_ID":49102,"ELEMENT_SET_NO":999,"REV_AT_EPOCH":21757,"BSTAR":5.7917709e-5,"MEAN_MOTION_DOT":3.6e-7,"MEAN_MOTION_DDOT":0},{"OBJECT_NAME":"ONEWEB-0317","OBJECT_ID":"2021-075AE","EPOCH":"2026-01-19T05:52:01.363872","MEAN_MOTION":13.12443229,"ECCENTRICITY":0.00010327,"INCLINATION":87.8928,"RA_OF_ASC_NODE":20.234,"ARG_OF_PERICENTER":99.3724,"MEAN_ANOMALY":260.7522,"EPHEMERIS_TYPE":0,"CLASSIFICATION_TYPE":"U","NORAD_CAT_ID":49103,"ELEMENT_SET_NO":999,"REV_AT_EPOCH":21565,"BSTAR":-0.00088012642,"MEAN_MOTION_DOT":-3.04e-6,"MEAN_MOTION_DDOT":0}]
